GOES 1 (SMS-C)          
1 08366U 75100A   26064.55928792  .00000004  00000+0  00000+0 0  9993
2 08366   4.8717 278.7365 0005403   0.0147 325.0914  1.00237662184020
GOES 2                  
1 10061U 77048A   26064.60539479 -.00000235  00000+0  00000+0 0  9994
2 10061   6.6664 294.2104 0013896  47.7608 151.1561  0.99396652 45243
GOES 3                  
1 10953U 78062A   26064.89892277 -.00000297  00000+0  00000+0 0  9998
2 10953   7.1355 300.0385 0002748 356.3127 344.4642  0.99365972127500
GOES 4                  
1 11964U 80074A   26064.50070101 -.00000222  00000+0  00000+0 0  9997
2 11964   8.2099 303.7237 0032113 103.0559 240.2129  0.99230664126401
GOES 5                  
1 12472U 81049A   26064.94223058 -.00000196  00000+0  00000+0 0  9994
2 12472   9.5432 316.3329 0004656 337.2568 120.3068  1.00211180121810
GOES 6                  
1 14050U 83041A   26064.27621734 -.00000075  00000+0  00000+0 0  9997
2 14050  10.3561 321.8949 0002343 307.0066 243.8951  1.00217783214972
GOES 7                  
1 17561U 87022A   26064.34269096  .00000080  00000+0  00000+0 0  9992
2 17561  13.0200 338.3678 0003961  14.8217 158.7836  0.99895004125929
GOES 8                  
1 23051U 94022A   26064.70044564 -.00000271  00000+0  00000+0 0  9995
2 23051  14.3417  14.4605 0005037  14.5221 188.2323  0.98908263123102
GOES 9                  
1 23581U 95025A   26064.85103998 -.00000048  00000+0  00000+0 0  9992
2 23581  13.8712  15.3028 0003594 210.7063 156.1277  0.98798323111744
GOES 10                 
1 24786U 97019A   26064.88618271 -.00000044  00000+0  00000+0 0  9999
2 24786  13.0057  21.8365 0030955 239.2690 311.4608  0.99121951105043
GOES 11                 
1 26352U 00022A   26064.92336287 -.00000075  00000+0  00000+0 0  9991
2 26352  11.5836  47.4289 0005918 254.9141 111.0340  0.99040481 51457
GOES 12                 
1 26871U 01031A   26064.35664437 -.00000182  00000+0  00000+0 0  9995
2 26871  11.9966  38.1347 0008752 296.0625 253.6596  0.99136879 89731
EWS-G1 (GOES 13)        
1 29155U 06018A   26064.63104825  .00000046  00000+0  00000+0 0  9992
2 29155   4.2641  77.6873 0062015 273.2090 281.9303  0.98785237 42221
GOES 14                 
1 35491U 09033A   26064.76564220  .00000119  00000+0  00000+0 0  9996
2 35491   1.4228  84.4012 0001793 254.3636 301.3765  1.00100039  5553
EWS-G2 (GOES 15)        
1 36411U 10008A   26064.91830472  .00000015  00000+0  00000+0 0  9990
2 36411   1.0125  85.1188 0001976  18.8284  93.7556  1.00269667 58602
GOES 16                 
1 41866U 16071A   26064.91902953 -.00000097  00000+0  00000+0 0  9991
2 41866   0.1417  89.5611 0002431 221.0431  79.1868  1.00271882 34064
GOES 17                 
1 43226U 18022A   26064.92206287 -.00000188  00000+0  00000+0 0  9990
2 43226   0.6720  87.5233 0002161 224.2100  94.3394  1.00270230 29382
